[{"OBJECT_NAME":"LATINSAT A","OBJECT_ID":"2002-058H","EPOCH":"2026-03-09T22:00:26.760960","MEAN_MOTION":14.85263124,"ECCENTRICITY":0.00565777,"INCLINATION":64.5529,"RA_OF_ASC_NODE":269.8516,"ARG_OF_PERICENTER":262.8341,"MEAN_ANOMALY":96.6332,"EPHEMERIS_TYPE":0,"CLASSIFICATION_TYPE":"U","NORAD_CAT_ID":27612,"ELEMENT_SET_NO":999,"REV_AT_EPOCH":25288,"BSTAR":0.00015857266,"MEAN_MOTION_DOT":1.248e-5,"MEAN_MOTION_DDOT":0},{"OBJECT_NAME":"STARLINK-3090","OBJECT_ID":"2021-082C","EPOCH":"2026-03-09T23:20:36.632544","MEAN_MOTION":14.98331604,"ECCENTRICITY":0.0002969,"INCLINATION":69.9979,"RA_OF_ASC_NODE":293.6149,"ARG_OF_PERICENTER":269.9157,"MEAN_ANOMALY":90.1661,"EPHEMERIS_TYPE":0,"CLASSIFICATION_TYPE":"U","NORAD_CAT_ID":49132,"ELEMENT_SET_NO":999,"REV_AT_EPOCH":24602,"BSTAR":-3.614228e-5,"MEAN_MOTION_DOT":-5.24e-6,"MEAN_MOTION_DDOT":0}]
